{
  "type": "FeatureCollection",
  "features": [
    {
      "type": "Feature",
      "properties": {
        "norad_id": 40362,
        "name": "YAOGAN-26",
        "group": "resource",
        "lat": 70.58940661800237,
        "lon": -173.21950394689756,
        "alt_km": 440.4562575995642,
        "timestamp": "2025-12-11T10:53:15.542074+00:00",
        "meta_object_name": "YAOGAN-26",
        "meta_object_id": "2014-088A",
        "meta_epoch": "2025-12-11T04:10:45.138720",
        "meta_mean_motion": 15.39211124,
        "meta_eccentricity": 0.0006479,
        "meta_inclination": 97.0646,
        "meta_ra_of_asc_node": 345.9038,
        "meta_arg_of_pericenter": 34.0246,
        "meta_mean_anomaly": 326.1415,
        "meta_ephemeris_type": 0,
        "meta_classification_type": "U",
        "meta_norad_cat_id": 40362,
        "meta_element_set_no": 999,
        "meta_rev_at_epoch": 60870,
        "meta_bstar": 0.00078195,
        "meta_mean_motion_dot": 0.00030425,
        "meta_mean_motion_ddot": 0,
        "tle_line1": "1 40362U 14088A   25345.17413355  .00030425  00000+0  78195-3 0  9990",
        "tle_line2": "2 40362  97.0646 345.9038 0006479  34.0246 326.1415 15.39211124608708"
      },
      "geometry": {
        "type": "Point",
        "coordinates": [
          -173.21950394689756,
          70.58940661800237
        ]
      }
    },
    {
      "type": "Feature",
      "properties": {
        "norad_id": 40376,
        "name": "SMAP",
        "group": "resource",
        "lat": -12.30078783455705,
        "lon": -8.01792078217272,
        "alt_km": 687.0017996010283,
        "timestamp": "2025-12-11T10:53:15.542084+00:00",
        "meta_object_name": "SMAP",
        "meta_object_id": "2015-003A",
        "meta_epoch": "2025-12-11T04:22:48.234144",
        "meta_mean_motion": 14.63341741,
        "meta_eccentricity": 0.0001201,
        "meta_inclination": 98.1292,
        "meta_ra_of_asc_node": 349.9288,
        "meta_arg_of_pericenter": 89.0447,
        "meta_mean_anomaly": 271.0892,
        "meta_ephemeris_type": 0,
        "meta_classification_type": "U",
        "meta_norad_cat_id": 40376,
        "meta_element_set_no": 999,
        "meta_rev_at_epoch": 58012,
        "meta_bstar": 0.00018056,
        "meta_mean_motion_dot": 8.85e-06,
        "meta_mean_motion_ddot": 0,
        "tle_line1": "1 40376U 15003A   25345.18250271  .00000885  00000+0  18056-3 0  9997",
        "tle_line2": "2 40376  98.1292 349.9288 0001201  89.0447 271.0892 14.63341741580121"
      },
      "geometry": {
        "type": "Point",
        "coordinates": [
          -8.01792078217272,
          -12.30078783455705
        ]
      }
    },
    {
      "type": "Feature",
      "properties": {
        "norad_id": 40536,
        "name": "KOMPSAT-3A",
        "group": "resource",
        "lat": 26.56282364880747,
        "lon": -44.13904666755013,
        "alt_km": 434.5669001865399,
        "timestamp": "2025-12-11T10:53:15.542095+00:00",
        "meta_object_name": "KOMPSAT-3A",
        "meta_object_id": "2015-014A",
        "meta_epoch": "2025-12-11T04:32:58.454880",
        "meta_mean_motion": 15.43853225,
        "meta_eccentricity": 0.0004781,
        "meta_inclination": 97.6791,
        "meta_ra_of_asc_node": 319.4503,
        "meta_arg_of_pericenter": 130.9421,
        "meta_mean_anomaly": 229.224,
        "meta_ephemeris_type": 0,
        "meta_classification_type": "U",
        "meta_norad_cat_id": 40536,
        "meta_element_set_no": 999,
        "meta_rev_at_epoch": 59271,
        "meta_bstar": 0.00062487,
        "meta_mean_motion_dot": 0.00028323,
        "meta_mean_motion_ddot": 0,
        "tle_line1": "1 40536U 15014A   25345.18956545  .00028323  00000+0  62487-3 0  9998",
        "tle_line2": "2 40536  97.6791 319.4503 0004781 130.9421 229.2240 15.43853225592717"
      },
      "geometry": {
        "type": "Point",
        "coordinates": [
          -44.13904666755013,
          26.56282364880747
        ]
      }
    },
    {
      "type": "Feature",
      "properties": {
        "norad_id": 40697,
        "name": "SENTINEL-2A",
        "group": "resource",
        "lat": 6.227563813382586,
        "lon": 57.06190932835708,
        "alt_km": 791.0374702625186,
        "timestamp": "2025-12-11T10:53:15.542106+00:00",
        "meta_object_name": "SENTINEL-2A",
        "meta_object_id": "2015-028A",
        "meta_epoch": "2025-12-11T04:08:41.979840",
        "meta_mean_motion": 14.30814054,
        "meta_eccentricity": 0.0001067,
        "meta_inclination": 98.5693,
        "meta_ra_of_asc_node": 57.7278,
        "meta_arg_of_pericenter": 92.8582,
        "meta_mean_anomaly": 267.2723,
        "meta_ephemeris_type": 0,
        "meta_classification_type": "U",
        "meta_norad_cat_id": 40697,
        "meta_element_set_no": 999,
        "meta_rev_at_epoch": 54684,
        "meta_bstar": 0.00023033,
        "meta_mean_motion_dot": 5.6e-06,
        "meta_mean_motion_ddot": 0,
        "tle_line1": "1 40697U 15028A   25345.17270810  .00000560  00000+0  23033-3 0  9991",
        "tle_line2": "2 40697  98.5693  57.7278 0001067  92.8582 267.2723 14.30814054546848"
      },
      "geometry": {
        "type": "Point",
        "coordinates": [
          57.06190932835708,
          6.227563813382586
        ]
      }
    },
    {
      "type": "Feature",
      "properties": {
        "norad_id": 40701,
        "name": "GAOFEN-8",
        "group": "resource",
        "lat": -80.6180728042062,
        "lon": -141.58496247811067,
        "alt_km": 463.4309917053497,
        "timestamp": "2025-12-11T10:53:15.542117+00:00",
        "meta_object_name": "GAOFEN-8",
        "meta_object_id": "2015-030A",
        "meta_epoch": "2025-12-11T05:00:42.435072",
        "meta_mean_motion": 15.38454937,
        "meta_eccentricity": 0.0011599,
        "meta_inclination": 97.6916,
        "meta_ra_of_asc_node": 163.2746,
        "meta_arg_of_pericenter": 143.0301,
        "meta_mean_anomaly": 217.1744,
        "meta_ephemeris_type": 0,
        "meta_classification_type": "U",
        "meta_norad_cat_id": 40701,
        "meta_element_set_no": 999,
        "meta_rev_at_epoch": 58247,
        "meta_bstar": 0.00045944,
        "meta_mean_motion_dot": 0.00017398,
        "meta_mean_motion_ddot": 0,
        "tle_line1": "1 40701U 15030A   25345.20882448  .00017398  00000+0  45944-3 0  9992",
        "tle_line2": "2 40701  97.6916 163.2746 0011599 143.0301 217.1744 15.38454937582479"
      },
      "geometry": {
        "type": "Point",
        "coordinates": [
          -141.58496247811067,
          -80.6180728042062
        ]
      }
    },
    {
      "type": "Feature",
      "properties": {
        "norad_id": 40718,
        "name": "CARBONITE 1 (CBNT-1)",
        "group": "resource",
        "lat": 73.69671534751754,
        "lon": 13.874436504485525,
        "alt_km": 612.1667952773059,
        "timestamp": "2025-12-11T10:53:15.542127+00:00",
        "meta_object_name": "CARBONITE 1 (CBNT-1)",
        "meta_object_id": "2015-032D",
        "meta_epoch": "2025-12-11T03:56:20.764608",
        "meta_mean_motion": 14.82729462,
        "meta_eccentricity": 0.0014218,
        "meta_inclination": 97.6404,
        "meta_ra_of_asc_node": 166.278,
        "meta_arg_of_pericenter": 186.7282,
        "meta_mean_anomaly": 173.3743,
        "meta_ephemeris_type": 0,
        "meta_classification_type": "U",
        "meta_norad_cat_id": 40718,
        "meta_element_set_no": 999,
        "meta_rev_at_epoch": 56147,
        "meta_bstar": 0.00034194,
        "meta_mean_motion_dot": 2.715e-05,
        "meta_mean_motion_ddot": 0,
        "tle_line1": "1 40718U 15032D   25345.16412922  .00002715  00000+0  34194-3 0  9995",
        "tle_line2": "2 40718  97.6404 166.2780 0014218 186.7282 173.3743 14.82729462561478"
      },
      "geometry": {
        "type": "Point",
        "coordinates": [
          13.874436504485525,
          73.69671534751754
        ]
      }
    },
    {
      "type": "Feature",
      "properties": {
        "norad_id": 40878,
        "name": "YAOGAN-27",
        "group": "resource",
        "lat": -32.75011516080484,
        "lon": 148.5475002385626,
        "alt_km": 1204.4120042022405,
        "timestamp": "2025-12-11T10:53:15.542138+00:00",
        "meta_object_name": "YAOGAN-27",
        "meta_object_id": "2015-040A",
        "meta_epoch": "2025-12-11T04:19:59.317824",
        "meta_mean_motion": 13.16061542,
        "meta_eccentricity": 0.0007629,
        "meta_inclination": 100.1013,
        "meta_ra_of_asc_node": 334.8706,
        "meta_arg_of_pericenter": 290.7963,
        "meta_mean_anomaly": 69.2333,
        "meta_ephemeris_type": 0,
        "meta_classification_type": "U",
        "meta_norad_cat_id": 40878,
        "meta_element_set_no": 999,
        "meta_rev_at_epoch": 49293,
        "meta_bstar": 0.0013649,
        "meta_mean_motion_dot": 4.76e-06,
        "meta_mean_motion_ddot": 0,
        "tle_line1": "1 40878U 15040A   25345.18054766  .00000476  00000+0  13649-2 0  9994",
        "tle_line2": "2 40878 100.1013 334.8706 0007629 290.7963  69.2333 13.16061542492938"
      },
      "geometry": {
        "type": "Point",
        "coordinates": [
          148.5475002385626,
          -32.75011516080484
        ]
      }
    }
  ]
}